COSMOS 2490             
1 39485U 13076C   24025.82845332  .00000031  00000+0  15000-3 0  9996
2 39485  82.4856 352.5208 0020191 212.1296 147.8555 12.42884997457594
AIST-1 (RS-41)          
1 39492U 13078C   24025.76628054  .00003409  00000+0  34406-3 0  9992
2 39492  82.4164  33.7895 0017470 321.3396  38.6571 14.90711919547193
KAZEOSAT 1              
1 39731U 14024A   24025.79026543  .00000490  00000+0  16246-3 0  9997
2 39731  98.4093 104.5113 0000962 100.1927 259.9371 14.42026615512735
COSMOS 2496             
1 39761U 14028A   24025.54575334  .00000041  00000+0  22658-3 0  9990
2 39761  82.4465 295.9466 0019092 181.2003 178.9034 12.42886951438984
COSMOS 2497             
1 39762U 14028B   24025.84027321  .00000042  00000+0  23041-3 0  9990
2 39762  82.4514 297.1041 0019809 174.1427 185.9888 12.42873408439080
COSMOS 2498             
1 39763U 14028C   24025.55284582  .00000049  00000+0  28137-3 0  9991
2 39763  82.4475 296.1325 0020425 175.0537 185.0748 12.42931481439014
COSMOS 2499 (RS-47)     
1 39765U 14028E   24025.80379639  .00000028  00000+0  70844-4 0  9999
2 39765  82.4506 121.7711 0230642 251.9517 105.6336 12.82867650453241
SPROUT                  
1 39770U 14029E   24025.38624017  .00049425  00000+0  24122-2 0  9992
2 39770  98.0019 166.8549 0006518 296.8928  63.1638 15.18093310525660
HODOYOSHI-4             
1 40011U 14033B   24025.80817496  .00002888  00000+0  35492-3 0  9994
2 40011  97.5974 242.5011 0024622 314.3977  45.5221 14.83559579519105
UNISAT-6                
1 40012U 14033C   24025.79446046  .00004711  00000+0  63636-3 0  9990
2 40012  97.6845 194.3582 0055098  53.2811 307.3443 14.78452857516644
DEIMOS-2                
1 40013U 14033D   24025.85245019  .00003721  00000+0  41227-3 0  9997
2 40013  97.7005 276.7749 0001760  50.9402 309.1971 14.87890312520442
BUGSAT-1 (TITA)         
1 40014U 14033E   24025.59693161  .00005949  00000+0  45355-3 0  9994
2 40014  98.1436  60.0350 0034953 253.7101 106.0276 15.01969733524073
SAUDISAT 4              
1 40016U 14033G   24025.43122040  .00001422  00000+0  20628-3 0  9990
2 40016  97.6497 198.5098 0048049  37.1633 323.2887 14.76718571516982
APRIZESAT 9             
1 40018U 14033J   24025.39018538  .00001775  00000+0  28299-3 0  9996
2 40018  97.7786 177.1044 0070493 128.1902 232.5683 14.71486049514923
BRITE-CA1 (TORONTO)     
1 40020U 14033L   24025.37693115  .00002992  00000+0  49436-3 0  9995
2 40020  97.8525 167.8369 0083843 190.4270 169.5201 14.68785400513751
DUCHIFAT-1              
1 40021U 14033M   24025.47440961  .00013125  00000+0  98386-3 0  9994
2 40021  98.0787   2.5848 0012645 219.7442 140.2856 15.02756268522515
NANOSATC-BR1            
1 40024U 14033Q   24025.46445608  .00011053  00000+0  89548-3 0  9997
2 40024  98.0621 352.1201 0007387 275.0114  85.0265 14.99873022521680
QB50P1                  
1 40025U 14033R   24025.43548651  .00009307  00000+0  81308-3 0  9992
2 40025  98.0261 341.9503 0008414 280.1123  79.9149 14.96994944521352
DTUSAT-2                
1 40030U 14033W   24025.78714533  .00008737  00000+0  78490-3 0  9994
2 40030  97.9920 334.8809 0008593 272.6114  87.4122 14.95920516521754
FLOCK 1C-4              
1 40031U 14033X   24025.46268119  .00015776  00000+0  12027-2 0  9998
2 40031  98.0613 355.5701 0006016 242.1946 117.8668 15.02115598521602
QB50P2                  
1 40032U 14033Y   24025.82709044  .00008336  00000+0  74832-3 0  9993
2 40032  97.9922 334.9368 0008407 276.8367  83.1897 14.95966185521742
PERSEUS-M1              
1 40039U 14033AF  24025.38162123  .00003277  00000+0  35160-3 0  9992
2 40039  97.9030 312.2977 0012214 313.7605  46.2600 14.89268930520276
POLYITAN-1              
1 40042U 14033AJ  24025.45088370  .00010454  00000+0  87159-3 0  9995
2 40042  98.0379 344.6270 0009926 270.8492  89.1593 14.98765370521285
TIGRISAT                
1 40043U 14033AK  24025.44529464  .00003422  00000+0  47033-3 0  9993
2 40043  97.6765 194.6423 0057511  52.2256 308.4145 14.77811557516220
AISAT                   
1 40054U 14034B   24025.57871805  .00009680  00000+0  11014-2 0  9990
2 40054  98.3510 233.5567 0009437 225.3487 134.6958 14.86413239516465
CANX-4                  
1 40055U 14034C   24025.50709016  .00002589  00000+0  37141-3 0  9999
2 40055  98.3928 214.3264 0012548 291.7889  68.1984 14.77392899515333
CANX-5                  
1 40056U 14034D   24025.51308091  .00002623  00000+0  37619-3 0  9998
2 40056  98.3931 214.3288 0012566 292.0788  67.9086 14.77400578506149
VELOX-I                 
1 40057U 14034E   24025.79798511  .00007634  00000+0  91877-3 0  9992
2 40057  98.3556 234.1111 0008288 245.0492 114.9861 14.84181240516420
GONETS-M 10             
1 40063U 14036C   24025.78637617  .00000024  00000+0  10435-3 0  9996
2 40063  82.5121 130.1389 0021108 245.3780 114.5101 12.42907409433944
METEOR-M 2              
1 40069U 14037A   24025.80315073  .00000326  00000+0  16993-3 0  9995
2 40069  98.4305  26.5032 0006746  60.9040 299.2813 14.20879226495261
DX1                     
1 40071U 14037C   24025.78027602  .00003040  00000+0  37196-3 0  9997
2 40071  98.3430 291.7977 0006942 220.0366 140.0336 14.84010180516368
UKUBE-1                 
1 40074U 14037F   24025.72721591  .00009694  00000+0  98090-3 0  9993
2 40074  98.3415 307.2086 0004159 158.2456 201.8938 14.91197531517389
GAOFEN-2                
1 40118U 14049A   24025.81453502  .00002746  00000+0  36386-3 0  9990
2 40118  97.6843  82.6279 0004656 186.6784 173.4367 14.80644855510011
BRITE-PL2 (HEWELIUSZ)   
1 40119U 14049B   24025.27760459  .00003829  00000+0  42371-3 0  9997
2 40119  97.8812 125.7755 0017392 116.1766 244.1241 14.87840485511176
HODOYOSHI-1             
1 40299U 14070B   24025.77988212  .00021996  00000+0  53707-3 0  9994
2 40299  97.1638  88.2653 0008444 187.5344 172.5778 15.40824005512996
CBERS 4                 
1 40336U 14079A   24025.80977947  .00000311  00000+0  12304-3 0  9998
2 40336  98.4189  97.7704 0001699  73.2587 286.8785 14.35480872478676
SMAP                    
1 40376U 15003A   24025.57482988  .00001200  00000+0  24142-3 0  9991
2 40376  98.1291  33.9885 0001457  96.2350 263.9018 14.63364048479851
GRIFEX                  
1 40379U 15003D   24025.49593622  .00293633  32508-4  12799-2 0  9993
2 40379  99.0801  27.0149 0030768 198.2567 161.7595 15.83967288497930
CP10 (EXOCUBE)          
1 40380U 15003E   24025.49407751  .00064934  00000+0  99838-3 0  9999
2 40380  99.1010  10.7017 0062583 258.2172 101.2050 15.51739715496949
GONETS-M 11             
1 40552U 15020A   24025.85132014  .00000050  00000+0  28547-3 0  9994
2 40552  82.4832 215.1039 0016833 108.3765 251.9147 12.42892765400286
GONETS-M 12             
1 40553U 15020B   24025.82492801  .00000041  00000+0  22488-3 0  9993
2 40553  82.4866 215.9962 0015346  93.2532 267.0304 12.42873941400276
GONETS-M 13             
1 40554U 15020C   24025.79785755  .00000058  00000+0  34482-3 0  9998
2 40554  82.4827 214.9090 0013968  79.1776 281.0875 12.42903135400285
DMC3-FM1                
1 40715U 15032A   24025.83205664  .00001459  00000+0  18460-3 0  9995
2 40715  97.7718 268.7984 0006975  50.9777 309.2057 14.83281585460320
DMC3-FM2                
1 40716U 15032B   24025.78783784  .00001500  00000+0  18953-3 0  9998
2 40716  97.7768 269.7313 0008939  53.1727 307.0305 14.83282993460310
DMC3-FM3                
1 40717U 15032C   24025.80958048  .00001496  00000+0  18906-3 0  9991
2 40717  97.7814 270.9503 0010355  49.3730 310.8383 14.83274801460322
CARBONITE 1 (CBNT-1)    
1 40718U 15032D   24025.81935321  .00003516  00000+0  49720-3 0  9995
2 40718  97.6679 232.8932 0014480 271.5904  88.3649 14.77650249460081
DEORBITSAIL             
1 40719U 15032E   24025.57190390  .00009133  00000+0  10918-2 0  9995
2 40719  97.7058 253.7334 0012416 249.3448 110.6436 14.84342917460772
2015-049A               
1 40899U 15049A   24025.80481865  .00022046  00000+0  68744-3 0  9997
2 40899  97.4750  39.5318 0012265 100.7615 259.5008 15.33178421462623
KAITUO 1A               
1 40904U 15049F   24025.81467777  .00034366  00000+0  97632-3 0  9997
2 40904  97.4939  38.8997 0011473 104.5862 255.6654 15.36038386462363
2015-049G               
1 40905U 15049G   24025.78692942  .00012129  00000+0  48755-3 0  9993
2 40905  97.5254  33.7575 0014193 121.3810 238.8818 15.24984092461830
XW-2C                   
1 40906U 15049H   24025.79581798  .00027100  00000+0  81791-3 0  9993
2 40906  97.4883  39.7713 0012123  94.0046 266.2583 15.34175889462434
XW-2D                   
1 40907U 15049J   24025.80172553  .00035020  00000+0  92957-3 0  9997
2 40907  97.4846  41.1814 0010924  86.0640 274.1853 15.38152514462589
LILACSAT-2              
1 40908U 15049K   24025.79904219  .00009873  00000+0  41859-3 0  9990
2 40908  97.5270  33.7961 0014559 127.8709 232.3847 15.23237035461641
XW-2E                   
1 40909U 15049L   24025.78291405  .00155898  00000+0  14449-2 0  9999
2 40909  97.4289  51.6672 0005996  54.2723 305.9095 15.66974734463604
XW-2F                   
1 40910U 15049M   24025.84191278  .00148975  00000+0  14663-2 0  9991
2 40910  97.4395  50.9640 0006722  55.1588 305.0303 15.65484500463337
XW-2B                   
1 40911U 15049N   24025.77596882  .00033070  00000+0  89000-3 0  9991
2 40911  97.4822  41.4230 0010994  87.4087 272.8416 15.37737508462457
COSMOS 2507             
1 40920U 15050A   24025.61121544  .00000062  00000+0  37716-3 0  9997
2 40920  82.4897 263.4935 0010011  91.9089 268.3137 12.42881822378338
COSMOS 2508             
1 40921U 15050B   24025.79861022  .00000066  00000+0  40218-3 0  9994
2 40921  82.4848 262.2113 0014232 125.7401 234.5004 12.42891672378379
COSMOS 2509             
1 40922U 15050C   24025.58340738  .00000061  00000+0  36844-3 0  9993
2 40922  82.4851 262.4264 0016252 140.3363 219.8909 12.42872754378355
